{"type": "FeatureCollection", "features": [ {"type": "Feature", "properties": {"norad_id": 34077, "name": "IRIDIUM 33 DEB", "group": "iridium-33-debris", "lat": -64.16560583647076, "lon": 47.91707014393202, "alt_km": 690.8185327443753, "timestamp": "2025-12-03T20:47:58.609876+00:00", "meta": {"OBJECT_NAME": "IRIDIUM 33 DEB", "OBJECT_ID": "1997-051CL", "EPOCH": "2025-12-03T04:49:49.513728", "MEAN_MOTION": 14.64572021, "ECCENTRICITY": 0.00109608, "INCLINATION": 86.3873, "RA_OF_ASC_NODE": 55.7079, "ARG_OF_PERICENTER": 69.3732, "MEAN_ANOMALY": 320.4311, "EPHEMERIS_TYPE": 0, "CLASSIFICATION_TYPE": "U", "NORAD_CAT_ID": 34077, "ELEMENT_SET_NO": 999, "REV_AT_EPOCH": 88193, "BSTAR": 0.0022894081, "MEAN_MOTION_DOT": 0.0001219, "MEAN_MOTION_DDOT": 0}, "tle": {"line1": "1 34077U 97051CL  25337.20126752  .00012190  00000+0  22894-2 0  9997", "line2": "2 34077  86.3873  55.7079 0010960  69.3732 320.4311 14.64572021881932"}}, "geometry": {"type": "Point", "coordinates": [47.91707014393202, -64.16560583647076]}}, {"type": "Feature", "properties": {"norad_id": 34079, "name": "IRIDIUM 33 DEB", "group": "iridium-33-debris", "lat": 53.48387656183568, "lon": 17.604506137256756, "alt_km": 610.0265309014694, "timestamp": "2025-12-03T20:47:58.609887+00:00", "meta": {"OBJECT_NAME": "IRIDIUM 33 DEB", "OBJECT_ID": "1997-051CN", "EPOCH": "2025-12-03T09:30:48.355200", "MEAN_MOTION": 14.83132899, "ECCENTRICITY": 0.0006722, "INCLINATION": 86.3782, "RA_OF_ASC_NODE": 12.9106, "ARG_OF_PERICENTER": 36.4792, "MEAN_ANOMALY": 28.0106, "EPHEMERIS_TYPE": 0, "CLASSIFICATION_TYPE": "U", "NORAD_CAT_ID": 34079, "ELEMENT_SET_NO": 999, "REV_AT_EPOCH": 88839, "BSTAR": 0.0021224, "MEAN_MOTION_DOT": 0.00017354, "MEAN_MOTION_DDOT": 0}, "tle": {"line1": "1 34079U 97051CN  25337.39639300  .00017354  00000+0  21224-2 0  9990", "line2": "2 34079  86.3782  12.9106 0006722  36.4792  28.0106 14.83132899888397"}}, "geometry": {"type": "Point", "coordinates": [17.604506137256756, 53.48387656183568]}}, {"type": "Feature", "properties": {"norad_id": 34088, "name": "IRIDIUM 33 DEB", "group": "iridium-33-debris", "lat": -78.80995280995599, "lon": -126.5690190666388, "alt_km": 600.9818139393301, "timestamp": "2025-12-03T20:47:58.609897+00:00", "meta": {"OBJECT_NAME": "IRIDIUM 33 DEB", "OBJECT_ID": "1997-051CX", "EPOCH": "2025-12-03T10:01:58.293984", "MEAN_MOTION": 14.90629069, "ECCENTRICITY": 0.0005179, "INCLINATION": 86.386, "RA_OF_ASC_NODE": 35.0047, "ARG_OF_PERICENTER": 211.1891, "MEAN_ANOMALY": 162.3362, "EPHEMERIS_TYPE": 0, "CLASSIFICATION_TYPE": "U", "NORAD_CAT_ID": 34088, "ELEMENT_SET_NO": 999, "REV_AT_EPOCH": 88603, "BSTAR": 0.0033725, "MEAN_MOTION_DOT": 0.00033173, "MEAN_MOTION_DDOT": 0}, "tle": {"line1": "1 34088U 97051CX  25337.41803581  .00033173  00000+0  33725-2 0  9993", "line2": "2 34088  86.3860  35.0047 0005179 211.1891 162.3362 14.90629069886034"}}, "geometry": {"type": "Point", "coordinates": [-126.5690190666388, -78.80995280995599]}}, {"type": "Feature", "properties": {"norad_id": 34091, "name": "IRIDIUM 33 DEB", "group": "iridium-33-debris", "lat": 36.29671998771399, "lon": 73.58721664793495, "alt_km": 617.3279965401771, "timestamp": "2025-12-03T20:47:58.609908+00:00", "meta": {"OBJECT_NAME": "IRIDIUM 33 DEB", "OBJECT_ID": "1997-051DA", "EPOCH": "2025-12-03T12:31:35.787072", "MEAN_MOTION": 14.80633508, "ECCENTRICITY": 0.0032922, "INCLINATION": 86.3425, "RA_OF_ASC_NODE": 71.0519, "ARG_OF_PERICENTER": 326.4248, "MEAN_ANOMALY": 33.4886, "EPHEMERIS_TYPE": 0, "CLASSIFICATION_TYPE": "U", "NORAD_CAT_ID": 34091, "ELEMENT_SET_NO": 999, "REV_AT_EPOCH": 87730, "BSTAR": 0.0066529, "MEAN_MOTION_DOT": 0.00051895, "MEAN_MOTION_DDOT": 0}, "tle": {"line1": "1 34091U 97051DA  25337.52194198  .00051895  00000+0  66529-2 0  9995", "line2": "2 34091  86.3425  71.0519 0032922 326.4248  33.4886 14.80633508877302"}}, "geometry": {"type": "Point", "coordinates": [73.58721664793495, 36.29671998771399]}}, {"type": "Feature", "properties": {"norad_id": 34097, "name": "IRIDIUM 33 DEB", "group": "iridium-33-debris", "lat": -31.173176429015005, "lon": 3.0205869994398826, "alt_km": 753.8881232733002, "timestamp": "2025-12-03T20:47:58.609918+00:00", "meta": {"OBJECT_NAME": "IRIDIUM 33 DEB", "OBJECT_ID": "1997-051DG", "EPOCH": "2025-12-03T09:13:33.436128", "MEAN_MOTION": 14.34659428, "ECCENTRICITY": 0.0083674, "INCLINATION": 86.2008, "RA_OF_ASC_NODE": 5.5372, "ARG_OF_PERICENTER": 32.5438, "MEAN_ANOMALY": 328.0876, "EPHEMERIS_TYPE": 0, "CLASSIFICATION_TYPE": "U", "NORAD_CAT_ID": 34097, "ELEMENT_SET_NO": 999, "REV_AT_EPOCH": 86985, "BSTAR": 0.0017654, "MEAN_MOTION_DOT": 5.213e-05, "MEAN_MOTION_DDOT": 0}, "tle": {"line1": "1 34097U 97051DG  25337.38441477  .00005213  00000+0  17654-2 0  9998", "line2": "2 34097  86.2008   5.5372 0083674  32.5438 328.0876 14.34659428869850"}}, "geometry": {"type": "Point", "coordinates": [3.0205869994398826, -31.173176429015005]}}, {"type": "Feature", "properties": {"norad_id": 34145, "name": "IRIDIUM 33 DEB", "group": "iridium-33-debris", "lat": -1.4283697166915488, "lon": -23.615876159956535, "alt_km": 776.009342049947, "timestamp": "2025-12-03T20:47:58.609929+00:00", "meta": {"OBJECT_NAME": "IRIDIUM 33 DEB", "OBJECT_ID": "1997-051DY", "EPOCH": "2025-12-03T10:48:54.133056", "MEAN_MOTION": 14.42182821, "ECCENTRICITY": 0.005529, "INCLINATION": 86.2113, "RA_OF_ASC_NODE": 336.664, "ARG_OF_PERICENTER": 123.3414, "MEAN_ANOMALY": 237.3097, "EPHEMERIS_TYPE": 0, "CLASSIFICATION_TYPE": "U", "NORAD_CAT_ID": 34145, "ELEMENT_SET_NO": 999, "REV_AT_EPOCH": 87504, "BSTAR": 0.0014092, "MEAN_MOTION_DOT": 4.745e-05, "MEAN_MOTION_DDOT": 0}, "tle": {"line1": "1 34145U 97051DY  25337.45062654  .00004745  00000+0  14092-2 0  9998", "line2": "2 34145  86.2113 336.6640 0055290 123.3414 237.3097 14.42182821875045"}}, "geometry": {"type": "Point", "coordinates": [-23.615876159956535, -1.4283697166915488]}}, {"type": "Feature", "properties": {"norad_id": 34146, "name": "IRIDIUM 33 DEB", "group": "iridium-33-debris", "lat": 38.82130698065166, "lon": 170.7227568182871, "alt_km": 733.03690174031, "timestamp": "2025-12-03T20:47:58.609939+00:00", "meta": {"OBJECT_NAME": "IRIDIUM 33 DEB", "OBJECT_ID": "1997-051DZ", "EPOCH": "2025-12-03T12:34:09.121152", "MEAN_MOTION": 14.48941519, "ECCENTRICITY": 0.0024987, "INCLINATION": 86.2835, "RA_OF_ASC_NODE": 353.8721, "ARG_OF_PERICENTER": 254.6968, "MEAN_ANOMALY": 258.8958, "EPHEMERIS_TYPE": 0, "CLASSIFICATION_TYPE": "U", "NORAD_CAT_ID": 34146, "ELEMENT_SET_NO": 999, "REV_AT_EPOCH": 87973, "BSTAR": 0.0014032, "MEAN_MOTION_DOT": 5.353e-05, "MEAN_MOTION_DDOT": 0}, "tle": {"line1": "1 34146U 97051DZ  25337.52371668  .00005353  00000+0  14032-2 0  9995", "line2": "2 34146  86.2835 353.8721 0024987 254.6968 258.8958 14.48941519879736"}}, "geometry": {"type": "Point", "coordinates": [170.7227568182871, 38.82130698065166]}}, {"type": "Feature", "properties": {"norad_id": 34159, "name": "IRIDIUM 33 DEB", "group": "iridium-33-debris", "lat": -11.650156280984943, "lon": -127.22222643547491, "alt_km": 779.5152066559631, "timestamp": "2025-12-03T20:47:58.609949+00:00", "meta": {"OBJECT_NAME": "IRIDIUM 33 DEB", "OBJECT_ID": "1997-051EN", "EPOCH": "2025-12-03T11:33:44.047584", "MEAN_MOTION": 14.38455653, "ECCENTRICITY": 0.0026516, "INCLINATION": 86.3515, "RA_OF_ASC_NODE": 52.188, "ARG_OF_PERICENTER": 320.2185, "MEAN_ANOMALY": 39.7068, "EPHEMERIS_TYPE": 0, "CLASSIFICATION_TYPE": "U", "NORAD_CAT_ID": 34159, "ELEMENT_SET_NO": 999, "REV_AT_EPOCH": 87826, "BSTAR": 0.00060665, "MEAN_MOTION_DOT": 1.877e-05, "MEAN_MOTION_DDOT": 0}, "tle": {"line1": "1 34159U 97051EN  25337.48175981  .00001877  00000+0  60665-3 0  9995", "line2": "2 34159  86.3515  52.1880 0026516 320.2185  39.7068 14.38455653878265"}}, "geometry": {"type": "Point", "coordinates": [-127.22222643547491, -11.650156280984943]}}, {"type": "Feature", "properties": {"norad_id": 34350, "name": "IRIDIUM 33 DEB", "group": "iridium-33-debris", "lat": 0.4584973523142851, "lon": 6.686963101176931, "alt_km": 758.697479244116, "timestamp": "2025-12-03T20:47:58.609960+00:00", "meta": {"OBJECT_NAME": "IRIDIUM 33 DEB", "OBJECT_ID": "1997-051ES", "EPOCH": "2025-12-03T02:46:10.970400", "MEAN_MOTION": 14.45350997, "ECCENTRICITY": 0.00218335, "INCLINATION": 86.3282, "RA_OF_ASC_NODE": 6.9833, "ARG_OF_PERICENTER": 165.5973, "MEAN_ANOMALY": 248.6185, "EPHEMERIS_TYPE": 0, "CLASSIFICATION_TYPE": "U", "NORAD_CAT_ID": 34350, "ELEMENT_SET_NO": 999, "REV_AT_EPOCH": 88154, "BSTAR": 0.00041343011, "MEAN_MOTION_DOT": 1.476e-05, "MEAN_MOTION_DDOT": 0}, "tle": {"line1": "1 34350U 97051ES  25337.11540475  .00001476  00000+0  41343-3 0  9999", "line2": "2 34350  86.3282   6.9833 0021833 165.5973 248.6185 14.45350997881545"}}, "geometry": {"type": "Point", "coordinates": [6.686963101176931, 0.4584973523142851]}}, {"type": "Feature", "properties": {"norad_id": 34366, "name": "IRIDIUM 33 DEB", "group": "iridium-33-debris", "lat": 53.10191228021089, "lon": 58.020657388107914, "alt_km": 714.4256691326955, "timestamp": "2025-12-03T20:47:58.609970+00:00", "meta": {"OBJECT_NAME": "IRIDIUM 33 DEB", "OBJECT_ID": "1997-051FJ", "EPOCH": "2025-12-03T05:56:14.838144", "MEAN_MOTION": 14.53909493, "ECCENTRICITY": 0.0021716, "INCLINATION": 86.371, "RA_OF_ASC_NODE": 53.4406, "ARG_OF_PERICENTER": 170.2088, "MEAN_ANOMALY": 244.1794, "EPHEMERIS_TYPE": 0, "CLASSIFICATION_TYPE": "U", "NORAD_CAT_ID": 34366, "ELEMENT_SET_NO": 999, "REV_AT_EPOCH": 88044, "BSTAR": 0.0017347, "MEAN_MOTION_DOT": 7.341e-05, "MEAN_MOTION_DDOT": 0}, "tle": {"line1": "1 34366U 97051FJ  25337.24739396  .00007341  00000+0  17347-2 0  9995", "line2": "2 34366  86.3710  53.4406 0021716 170.2088 244.1794 14.53909493880446"}}, "geometry": {"type": "Point", "coordinates": [58.020657388107914, 53.10191228021089]}}]}